     2.11           N: GPS NAV DATA                         RINEX VERSION / TYPE
teqc  2019Feb25                         20221121 12:25:20UTCPGM / RUN BY / DATE
OSX ker:10.11.6|Core i5|gcc 4.3 -m64|OSX ker:10.10+|=+      COMMENT
    4.6566D-09  1.4901D-08 -5.9605D-08 -1.1921D-07          ION ALPHA
    7.9872D+04  8.1920D+04 -6.5536D+04 -4.5875D+05          ION BETA
   -2.793967723846D-09-1.332267629550D-14    61440     1541 DELTA-UTC: A0,A1,T,W
                                                            END OF HEADER
 3 09  7 19  0  0  0.0 4.218951798975D-04 5.115907697473D-12 0.000000000000D+00
    9.700000000000D+01 8.562500000000D+00 5.810599177636D-09 1.796472793274D+00
    3.464519977570D-07 1.208552205935D-02 6.901100277901D-06 5.153634525299D+03
    0.000000000000D+00-3.818422555923D-07-2.558870269595D+00-1.285225152969D-07
    9.264537369397D-01 2.314062500000D+02 9.140561133289D-01-8.484639133562D-09
    4.118028675281D-10 1.000000000000D+00 1.541000000000D+03 0.000000000000D+00
    2.800000000000D+00 0.000000000000D+00-4.190951585770D-09 9.700000000000D+01
   -7.182000000000D+03 4.000000000000D+00
19 09  7 19  0  0  0.0 1.855473965406D-05-1.364242052659D-12 0.000000000000D+00
    7.800000000000D+01 6.687500000000D+00 5.183430196388D-09 2.528319359907D+00
    5.140900611877D-07 5.759071558714D-03 6.234273314476D-06 5.153621208191D+03
    0.000000000000D+00-6.146728992462D-08-2.370227170527D+00 2.551823854446D-07
    9.573691429076D-01 2.581250000000D+02-3.228870978179D-01-8.147125074747D-09
    2.085801167705D-10 1.000000000000D+00 1.541000000000D+03 0.000000000000D+00
    2.000000000000D+00 0.000000000000D+00-1.443549990654D-08 7.800000000000D+01
   -7.182000000000D+03 4.000000000000D+00
 6 09  7 19  0  0  0.0 1.962026581168D-04 1.068656274583D-11 0.000000000000D+00
    8.900000000000D+01 1.443750000000D+01 5.605233480473D-09-2.095942681980D+00
    9.089708328247D-07 5.974099389277D-03 6.297603249550D-06 5.153690984726D+03
    0.000000000000D+00-2.980232238770D-08-2.490852026625D+00 1.080334186554D-07
    9.338611275444D-01 2.425000000000D+02-1.309554150838D+00-8.279630594134D-09
    3.643008888800D-10 1.000000000000D+00 1.541000000000D+03 0.000000000000D+00
    2.000000000000D+00 0.000000000000D+00-4.656612873077D-09 8.900000000000D+01
   -7.182000000000D+03 4.000000000000D+00
 7 09  7 19  0  0  0.0 1.499662175775D-05-6.821210263297D-13 0.000000000000D+00
    8.900000000000D+01-1.237500000000D+02 4.263391873099D-09 4.204034892756D-01
   -6.401911377907D-06 2.849040320143D-03 4.608184099197D-06 5.153665342331D+03
    0.000000000000D+00 3.725290298462D-08 1.745581755881D+00 5.587935447693D-09
    9.678665324860D-01 2.943750000000D+02 2.883833439810D+00-8.111409301327D-09
   -1.250052069686D-11 1.000000000000D+00 1.541000000000D+03 0.000000000000D+00
    2.000000000000D+00 0.000000000000D+00-1.071020960808D-08 8.900000000000D+01
   -7.182000000000D+03 4.000000000000D+00
25 09  7 19  0  0  0.0 5.145161412656D-04 1.716671249596D-11 0.000000000000D+00
    8.000000000000D+01-1.107187500000D+02 4.264106188567D-09-1.403354595786D+00
   -5.571171641350D-06 1.128516218159D-02 4.071742296219D-06 5.153651662827D+03
    0.000000000000D+00-2.570450305939D-07 1.651139265446D+00 1.117587089539D-07
    9.700423963766D-01 3.092500000000D+02-1.209401939417D+00-8.216413675181D-09
    1.285767843106D-11 1.000000000000D+00 1.541000000000D+03 0.000000000000D+00
    2.800000000000D+00 0.000000000000D+00-7.450580596924D-09 8.000000000000D+01
   -7.182000000000D+03 4.000000000000D+00
18 09  7 19  0  0  0.0-3.888085484505D-05 3.183231456205D-12 0.000000000000D+00
    4.200000000000D+01 1.406562500000D+02 4.461257257843D-09-1.821570642175D+00
    7.187947630882D-06 1.070593507029D-02 8.918344974518D-06 5.153616632462D+03
    0.000000000000D+00 9.126961231232D-08-3.209352183886D-01-2.291053533554D-07
    9.418999647942D-01 2.003750000000D+02-2.405719191358D+00-7.837112161465D-09
   -9.750406143553D-11 1.000000000000D+00 1.541000000000D+03 0.000000000000D+00
    2.000000000000D+00 0.000000000000D+00-1.071020960808D-08 4.200000000000D+01
   -7.182000000000D+03 4.000000000000D+00
15 09  7 19  0  0  0.0-3.092330880463D-04-2.501110429876D-12 0.000000000000D+00
    5.200000000000D+01 5.503125000000D+01 4.666980112740D-09 2.810412757406D+00
    2.831220626831D-06 1.491099246778D-03 1.247972249985D-07 5.153639785767D+03
    0.000000000000D+00-9.313225746155D-09 6.826324078655D-01-3.539025783539D-08
    9.562163502949D-01 3.735937500000D+02-4.890362514657D-01-8.500354073867D-09
    1.410773050075D-10 1.000000000000D+00 1.541000000000D+03 0.000000000000D+00
    2.000000000000D+00 0.000000000000D+00-9.778887033463D-09 5.200000000000D+01
   -7.182000000000D+03 4.000000000000D+00
21 09  7 19  0  0  0.0 1.963693648577D-06-2.160049916711D-12 0.000000000000D+00
    8.600000000000D+01 1.100000000000D+01 5.347722754118D-09-5.399840398398D-01
    4.433095455170D-07 1.550476939883D-02 8.400529623032D-06 5.153593101501D+03
    0.000000000000D+00 1.527369022369D-07-1.379087912570D+00 1.899898052216D-07
    9.333915454701D-01 2.020000000000D+02-2.578613595481D+00-8.427493896091D-09
   -7.832469110920D-10 1.000000000000D+00 1.541000000000D+03 0.000000000000D+00
    2.000000000000D+00 0.000000000000D+00-1.210719347000D-08 8.600000000000D+01
   -7.182000000000D+03 4.000000000000D+00
28 09  7 19  0  0  0.0-2.598203718662D-05-1.136868377216D-13 0.000000000000D+00
    4.500000000000D+01-5.834375000000D+01 4.199103480943D-09-2.607235946117D+00
   -3.198161721230D-06 1.493654598016D-02 1.086108386517D-05 5.153653034210D+03
    0.000000000000D+00 1.993030309677D-07 2.823137136936D+00-7.078051567078D-08
    9.674987402517D-01 1.685937500000D+02-2.021720889544D+00-7.477097165395D-09
    6.496699185027D-10 1.000000000000D+00 1.541000000000D+03 0.000000000000D+00
    2.000000000000D+00 0.000000000000D+00-1.071020960808D-08 4.500000000000D+01
   -6.858000000000D+03 4.000000000000D+00
22 09  7 19  0  0  0.0 1.952014863491D-04-5.684341886081D-13 0.000000000000D+00
    1.800000000000D+01 1.363750000000D+02 4.444470844336D-09-2.845878842163D+00
    7.068738341331D-06 5.184141453356D-03 9.527429938316D-06 5.153667388916D+03
    0.000000000000D+00-3.539025783539D-08-3.153607661217D-01-2.421438694000D-08
    9.395676608330D-01 1.837812500000D+02-1.898631572392D+00-7.879613931834D-09
   -1.371485699313D-10 1.000000000000D+00 1.541000000000D+03 0.000000000000D+00
    2.000000000000D+00 0.000000000000D+00-1.769512891769D-08 1.800000000000D+01
   -6.828000000000D+03 4.000000000000D+00
11 09  7 19  0  0  0.0-1.119123771787D-05-1.591615728103D-12 0.000000000000D+00
    3.400000000000D+01-1.115625000000D+01 6.639562278705D-09 2.391048650945D-01
   -4.116445779800D-07 9.511727723293D-03 6.586313247681D-06 5.153684061050D+03
    0.000000000000D+00-2.793967723846D-08-1.613052444875D+00 1.098960638046D-07
    8.888116200573D-01 2.090937500000D+02 7.061724304134D-01-9.103950644658D-09
   -6.364550823374D-10 1.000000000000D+00 1.541000000000D+03 0.000000000000D+00
    2.000000000000D+00 0.000000000000D+00-1.164153218269D-08 3.400000000000D+01
   -5.298000000000D+03 4.000000000000D+00
26 09  7 19  0  0  0.0 6.474694237113D-05 1.136868377216D-13 0.000000000000D+00
    5.400000000000D+01 4.521875000000D+01 3.845517324089D-09 2.051907403894D-01
    2.477318048477D-06 2.027969434857D-02 1.294538378716D-06 5.154907829285D+03
    0.000000000000D+00-3.017485141754D-07 7.541017506562D-01 3.222376108170D-07
    9.925623641837D-01 3.730000000000D+02 1.025819088614D+00-8.363562661670D-09
    1.435774091468D-10 1.000000000000D+00 1.541000000000D+03 0.000000000000D+00
    2.000000000000D+00 0.000000000000D+00-6.519258022308D-09 5.400000000000D+01
   -1.818000000000D+03 4.000000000000D+00
27 09  7 19  0  0  0.0 6.676977500319D-05 3.183231456205D-12 0.000000000000D+00
    3.300000000000D+01-1.515000000000D+02 4.077669851317D-09 2.795354730956D+00
   -7.886439561844D-06 2.130235126242D-02 3.889203071594D-06 5.153771850586D+03
    0.000000000000D+00 3.073364496231D-07 1.687715514846D+00-1.005828380585D-07
    9.747926069505D-01 3.119375000000D+02-1.571006050731D+00-7.712464112230D-09
   -1.542921411727D-10 1.000000000000D+00 1.541000000000D+03 0.000000000000D+00
    2.000000000000D+00 0.000000000000D+00-4.190951585770D-09 3.300000000000D+01
   -1.248000000000D+03 4.000000000000D+00
17 09  7 19  0  0  0.0 7.129833102226D-05 2.387423592154D-12 0.000000000000D+00
    8.500000000000D+01 3.468750000000D+00 5.009137222100D-09 3.136355781373D+00
    1.341104507446D-07 4.582416848280D-03 6.226822733879D-06 5.153697975159D+03
    0.000000000000D+00-1.229345798492D-07-2.426126019350D+00-8.381903171539D-08
    9.597135276463D-01 2.574687500000D+02-2.630605970269D+00-7.993904406777D-09
    1.078616357272D-10 1.000000000000D+00 1.541000000000D+03 0.000000000000D+00
    2.800000000000D+00 0.000000000000D+00-1.024454832077D-08 8.500000000000D+01
   -2.280000000000D+02 4.000000000000D+00
